<?xml version="1.0" encoding="UTF-8"?>
<ndm xmlns:xsi="http://www.w3.org/2001/XMLSchema-instance" xsi:noNamespaceSchemaLocation="https://sanaregistry.org/r/ndmxml_unqualified/ndmxml-2.0.0-master-2.0.xsd">
<omm id="CCSDS_OMM_VERS" version="2.0">
<header><CREATION_DATE/><ORIGINATOR/></header><body><segment><metadata><OBJECT_NAME>ONEWEB-0199</OBJECT_NAME><OBJECT_ID>2021-031AA</OBJECT_ID><CENTER_NAME>EARTH</CENTER_NAME><REF_FRAME>TEME</REF_FRAME><TIME_SYSTEM>UTC</TIME_SYSTEM><MEAN_ELEMENT_THEORY>SGP4</MEAN_ELEMENT_THEORY></metadata><data><meanElements><EPOCH>2024-04-29T10:10:58.344096</EPOCH><MEAN_MOTION>13.14502518</MEAN_MOTION><ECCENTRICITY>.0002148</ECCENTRICITY><INCLINATION>87.8930</INCLINATION><RA_OF_ASC_NODE>84.6495</RA_OF_ASC_NODE><ARG_OF_PERICENTER>84.0339</ARG_OF_PERICENTER><MEAN_ANOMALY>276.1035</MEAN_ANOMALY></meanElements><tleParameters><EPHEMERIS_TYPE>0</EPHEMERIS_TYPE><CLASSIFICATION_TYPE>U</CLASSIFICATION_TYPE><NORAD_CAT_ID>48234</NORAD_CAT_ID><ELEMENT_SET_NO>999</ELEMENT_SET_NO><REV_AT_EPOCH>14595</REV_AT_EPOCH><BSTAR>.74245E-3</BSTAR><MEAN_MOTION_DOT>.288E-5</MEAN_MOTION_DOT><MEAN_MOTION_DDOT>0</MEAN_MOTION_DDOT></tleParameters></data></segment></body></omm>
<omm id="CCSDS_OMM_VERS" version="2.0">
<header><CREATION_DATE/><ORIGINATOR/></header><body><segment><metadata><OBJECT_NAME>ONEWEB-0203</OBJECT_NAME><OBJECT_ID>2021-031AB</OBJECT_ID><CENTER_NAME>EARTH</CENTER_NAME><REF_FRAME>TEME</REF_FRAME><TIME_SYSTEM>UTC</TIME_SYSTEM><MEAN_ELEMENT_THEORY>SGP4</MEAN_ELEMENT_THEORY></metadata><data><meanElements><EPOCH>2024-04-29T20:54:55.548864</EPOCH><MEAN_MOTION>13.14502360</MEAN_MOTION><ECCENTRICITY>.0001789</ECCENTRICITY><INCLINATION>87.8929</INCLINATION><RA_OF_ASC_NODE>84.5616</RA_OF_ASC_NODE><ARG_OF_PERICENTER>99.1989</ARG_OF_PERICENTER><MEAN_ANOMALY>260.9343</MEAN_ANOMALY></meanElements><tleParameters><EPHEMERIS_TYPE>0</EPHEMERIS_TYPE><CLASSIFICATION_TYPE>U</CLASSIFICATION_TYPE><NORAD_CAT_ID>48235</NORAD_CAT_ID><ELEMENT_SET_NO>999</ELEMENT_SET_NO><REV_AT_EPOCH>14602</REV_AT_EPOCH><BSTAR>.10834E-3</BSTAR><MEAN_MOTION_DOT>.53E-6</MEAN_MOTION_DOT><MEAN_MOTION_DDOT>0</MEAN_MOTION_DDOT></tleParameters></data></segment></body></omm>
<omm id="CCSDS_OMM_VERS" version="2.0">
<header><CREATION_DATE/><ORIGINATOR/></header><body><segment><metadata><OBJECT_NAME>ONEWEB-0197</OBJECT_NAME><OBJECT_ID>2021-031AC</OBJECT_ID><CENTER_NAME>EARTH</CENTER_NAME><REF_FRAME>TEME</REF_FRAME><TIME_SYSTEM>UTC</TIME_SYSTEM><MEAN_ELEMENT_THEORY>SGP4</MEAN_ELEMENT_THEORY></metadata><data><meanElements><EPOCH>2024-04-29T20:19:32.005344</EPOCH><MEAN_MOTION>13.14502711</MEAN_MOTION><ECCENTRICITY>.0001945</ECCENTRICITY><INCLINATION>87.8933</INCLINATION><RA_OF_ASC_NODE>84.5747</RA_OF_ASC_NODE><ARG_OF_PERICENTER>72.4934</ARG_OF_PERICENTER><MEAN_ANOMALY>287.6408</MEAN_ANOMALY></meanElements><tleParameters><EPHEMERIS_TYPE>0</EPHEMERIS_TYPE><CLASSIFICATION_TYPE>U</CLASSIFICATION_TYPE><NORAD_CAT_ID>48236</NORAD_CAT_ID><ELEMENT_SET_NO>999</ELEMENT_SET_NO><REV_AT_EPOCH>14593</REV_AT_EPOCH><BSTAR>-.52651E-3</BSTAR><MEAN_MOTION_DOT>-.182E-5</MEAN_MOTION_DOT><MEAN_MOTION_DDOT>0</MEAN_MOTION_DDOT></tleParameters></data></segment></body></omm>
<omm id="CCSDS_OMM_VERS" version="2.0">
<header><CREATION_DATE/><ORIGINATOR/></header><body><segment><metadata><OBJECT_NAME>ONEWEB-0194</OBJECT_NAME><OBJECT_ID>2021-031AD</OBJECT_ID><CENTER_NAME>EARTH</CENTER_NAME><REF_FRAME>TEME</REF_FRAME><TIME_SYSTEM>UTC</TIME_SYSTEM><MEAN_ELEMENT_THEORY>SGP4</MEAN_ELEMENT_THEORY></metadata><data><meanElements><EPOCH>2024-04-29T19:48:41.862528</EPOCH><MEAN_MOTION>13.14501942</MEAN_MOTION><ECCENTRICITY>.000177</ECCENTRICITY><INCLINATION>87.8933</INCLINATION><RA_OF_ASC_NODE>84.5715</RA_OF_ASC_NODE><ARG_OF_PERICENTER>89.8361</ARG_OF_PERICENTER><MEAN_ANOMALY>270.2972</MEAN_ANOMALY></meanElements><tleParameters><EPHEMERIS_TYPE>0</EPHEMERIS_TYPE><CLASSIFICATION_TYPE>U</CLASSIFICATION_TYPE><NORAD_CAT_ID>48237</NORAD_CAT_ID><ELEMENT_SET_NO>999</ELEMENT_SET_NO><REV_AT_EPOCH>14610</REV_AT_EPOCH><BSTAR>-.12324E-3</BSTAR><MEAN_MOTION_DOT>-.33E-6</MEAN_MOTION_DOT><MEAN_MOTION_DDOT>0</MEAN_MOTION_DDOT></tleParameters></data></segment></body></omm>
<omm id="CCSDS_OMM_VERS" version="2.0">
<header><CREATION_DATE/><ORIGINATOR/></header><body><segment><metadata><OBJECT_NAME>ONEWEB-0193</OBJECT_NAME><OBJECT_ID>2021-031AE</OBJECT_ID><CENTER_NAME>EARTH</CENTER_NAME><REF_FRAME>TEME</REF_FRAME><TIME_SYSTEM>UTC</TIME_SYSTEM><MEAN_ELEMENT_THEORY>SGP4</MEAN_ELEMENT_THEORY></metadata><data><meanElements><EPOCH>2024-04-29T20:11:31.590240</EPOCH><MEAN_MOTION>13.14501322</MEAN_MOTION><ECCENTRICITY>.0002056</ECCENTRICITY><INCLINATION>87.8934</INCLINATION><RA_OF_ASC_NODE>84.5763</RA_OF_ASC_NODE><ARG_OF_PERICENTER>89.1038</ARG_OF_PERICENTER><MEAN_ANOMALY>271.0327</MEAN_ANOMALY></meanElements><tleParameters><EPHEMERIS_TYPE>0</EPHEMERIS_TYPE><CLASSIFICATION_TYPE>U</CLASSIFICATION_TYPE><NORAD_CAT_ID>48238</NORAD_CAT_ID><ELEMENT_SET_NO>999</ELEMENT_SET_NO><REV_AT_EPOCH>14605</REV_AT_EPOCH><BSTAR>-.33183E-3</BSTAR><MEAN_MOTION_DOT>-.11E-5</MEAN_MOTION_DOT><MEAN_MOTION_DDOT>0</MEAN_MOTION_DDOT></tleParameters></data></segment></body></omm>
<omm id="CCSDS_OMM_VERS" version="2.0">
<header><CREATION_DATE/><ORIGINATOR/></header><body><segment><metadata><OBJECT_NAME>ONEWEB-0191</OBJECT_NAME><OBJECT_ID>2021-031AF</OBJECT_ID><CENTER_NAME>EARTH</CENTER_NAME><REF_FRAME>TEME</REF_FRAME><TIME_SYSTEM>UTC</TIME_SYSTEM><MEAN_ELEMENT_THEORY>SGP4</MEAN_ELEMENT_THEORY></metadata><data><meanElements><EPOCH>2024-04-29T20:27:31.722336</EPOCH><MEAN_MOTION>13.14502916</MEAN_MOTION><ECCENTRICITY>.0002017</ECCENTRICITY><INCLINATION>87.8929</INCLINATION><RA_OF_ASC_NODE>84.5594</RA_OF_ASC_NODE><ARG_OF_PERICENTER>86.7177</ARG_OF_PERICENTER><MEAN_ANOMALY>273.4183</MEAN_ANOMALY></meanElements><tleParameters><EPHEMERIS_TYPE>0</EPHEMERIS_TYPE><CLASSIFICATION_TYPE>U</CLASSIFICATION_TYPE><NORAD_CAT_ID>48239</NORAD_CAT_ID><ELEMENT_SET_NO>999</ELEMENT_SET_NO><REV_AT_EPOCH>14591</REV_AT_EPOCH><BSTAR>-.60612E-3</BSTAR><MEAN_MOTION_DOT>-.212E-5</MEAN_MOTION_DOT><MEAN_MOTION_DDOT>0</MEAN_MOTION_DDOT></tleParameters></data></segment></body></omm>
<omm id="CCSDS_OMM_VERS" version="2.0">
<header><CREATION_DATE/><ORIGINATOR/></header><body><segment><metadata><OBJECT_NAME>ONEWEB-0195</OBJECT_NAME><OBJECT_ID>2021-031AG</OBJECT_ID><CENTER_NAME>EARTH</CENTER_NAME><REF_FRAME>TEME</REF_FRAME><TIME_SYSTEM>UTC</TIME_SYSTEM><MEAN_ELEMENT_THEORY>SGP4</MEAN_ELEMENT_THEORY></metadata><data><meanElements><EPOCH>2024-04-29T19:54:24.898176</EPOCH><MEAN_MOTION>13.14501391</MEAN_MOTION><ECCENTRICITY>.0002447</ECCENTRICITY><INCLINATION>87.8926</INCLINATION><RA_OF_ASC_NODE>84.5634</RA_OF_ASC_NODE><ARG_OF_PERICENTER>90.3124</ARG_OF_PERICENTER><MEAN_ANOMALY>269.8286</MEAN_ANOMALY></meanElements><tleParameters><EPHEMERIS_TYPE>0</EPHEMERIS_TYPE><CLASSIFICATION_TYPE>U</CLASSIFICATION_TYPE><NORAD_CAT_ID>48240</NORAD_CAT_ID><ELEMENT_SET_NO>999</ELEMENT_SET_NO><REV_AT_EPOCH>14589</REV_AT_EPOCH><BSTAR>-.24239E-3</BSTAR><MEAN_MOTION_DOT>-.77E-6</MEAN_MOTION_DOT><MEAN_MOTION_DDOT>0</MEAN_MOTION_DDOT></tleParameters></data></segment></body></omm>
<omm id="CCSDS_OMM_VERS" version="2.0">
<header><CREATION_DATE/><ORIGINATOR/></header><body><segment><metadata><OBJECT_NAME>ONEWEB-0201</OBJECT_NAME><OBJECT_ID>2021-031AH</OBJECT_ID><CENTER_NAME>EARTH</CENTER_NAME><REF_FRAME>TEME</REF_FRAME><TIME_SYSTEM>UTC</TIME_SYSTEM><MEAN_ELEMENT_THEORY>SGP4</MEAN_ELEMENT_THEORY></metadata><data><meanElements><EPOCH>2024-04-29T14:09:35.523936</EPOCH><MEAN_MOTION>13.14504918</MEAN_MOTION><ECCENTRICITY>.0002175</ECCENTRICITY><INCLINATION>87.8933</INCLINATION><RA_OF_ASC_NODE>84.6441</RA_OF_ASC_NODE><ARG_OF_PERICENTER>85.0090</ARG_OF_PERICENTER><MEAN_ANOMALY>275.1288</MEAN_ANOMALY></meanElements><tleParameters><EPHEMERIS_TYPE>0</EPHEMERIS_TYPE><CLASSIFICATION_TYPE>U</CLASSIFICATION_TYPE><NORAD_CAT_ID>48241</NORAD_CAT_ID><ELEMENT_SET_NO>999</ELEMENT_SET_NO><REV_AT_EPOCH>14609</REV_AT_EPOCH><BSTAR>.47559E-3</BSTAR><MEAN_MOTION_DOT>.189E-5</MEAN_MOTION_DOT><MEAN_MOTION_DDOT>0</MEAN_MOTION_DDOT></tleParameters></data></segment></body></omm>

</ndm>
