ONEWEB-0199             
1 48234U 21031AA  24120.42428639  .00000288  00000+0  74245-3 0  9997
2 48234  87.8930  84.6495 0002148  84.0339 276.1035 13.14502518145954
ONEWEB-0203             
1 48235U 21031AB  24120.87147626  .00000053  00000+0  10834-3 0  9995
2 48235  87.8929  84.5616 0001789  99.1989 260.9343 13.14502360146022
ONEWEB-0197             
1 48236U 21031AC  24120.84689821 -.00000182  00000+0 -52651-3 0  9999
2 48236  87.8933  84.5747 0001945  72.4934 287.6408 13.14502711145938
ONEWEB-0194             
1 48237U 21031AD  24120.82548452 -.00000033  00000+0 -12324-3 0  9990
2 48237  87.8933  84.5715 0001770  89.8361 270.2972 13.14501942146105
ONEWEB-0193             
1 48238U 21031AE  24120.84133785 -.00000110  00000+0 -33183-3 0  9994
2 48238  87.8934  84.5763 0002056  89.1038 271.0327 13.14501322146051
ONEWEB-0191             
1 48239U 21031AF  24120.85245049 -.00000212  00000+0 -60612-3 0  9993
2 48239  87.8929  84.5594 0002017  86.7177 273.4183 13.14502916145912
ONEWEB-0195             
1 48240U 21031AG  24120.82945484 -.00000077  00000+0 -24239-3 0  9996
2 48240  87.8926  84.5634 0002447  90.3124 269.8286 13.14501391145892
ONEWEB-0201             
1 48241U 21031AH  24120.58999449  .00000189  00000+0  47559-3 0  9992
2 48241  87.8933  84.6441 0002175  85.0090 275.1288 13.14504918146092
